{
  "norad_id": 51960,
  "name": "STARLINK-3691",
  "history": [
    {
      "epoch": "2026-03-28T22:00:01.999584Z",
      "apogee_km": 475.8869436693849,
      "perigee_km": 474.6723811684715,
      "latitude_deg": 14.226246808329883,
      "longitude_deg": -39.84507010186575,
      "height_km": 475.2010895337369,
      "semi_major_axis_km": 6853.416662418928,
      "eccentricity": 8.861e-05,
      "inclination_deg": 53.1595,
      "raan_deg": 307.3816,
      "arg_perigee_deg": 95.5645,
      "mean_anomaly_deg": 66.5542,
      "mean_motion_rev_day": 15.30178367
    },
    {
      "epoch": "2026-03-29T04:00:01.999584Z",
      "apogee_km": 475.859376104464,
      "perigee_km": 474.6257677815138,
      "latitude_deg": 52.151043197804256,
      "longitude_deg": 166.13171309840263,
      "height_km": 480.9562364054104,
      "semi_major_axis_km": 6853.379571942989,
      "eccentricity": 9e-05,
      "inclination_deg": 53.1593,
      "raan_deg": 306.2202,
      "arg_perigee_deg": 85.6763,
      "mean_anomaly_deg": 14.3785,
      "mean_motion_rev_day": 15.30190789
    },
    {
      "epoch": "2026-03-30T04:00:01.999584Z",
      "apogee_km": 475.9924001672498,
      "perigee_km": 474.5175502141883,
      "latitude_deg": -25.16501677655546,
      "longitude_deg": -105.50540331647697,
      "height_km": 483.1639979643957,
      "semi_major_axis_km": 6853.391975190719,
      "eccentricity": 0.0001076,
      "inclination_deg": 53.1595,
      "raan_deg": 301.5753,
      "arg_perigee_deg": 70.3053,
      "mean_anomaly_deg": 141.5192,
      "mean_motion_rev_day": 15.30186635
    },
    {
      "epoch": "2026-03-30T06:00:02.000160Z",
      "apogee_km": 475.851225041185,
      "perigee_km": 474.4734377436016,
      "latitude_deg": -37.27657576529561,
      "longitude_deg": -11.013608130253173,
      "height_km": 487.71373829487646,
      "semi_major_axis_km": 6853.2993313923935,
      "eccentricity": 0.00010052,
      "inclination_deg": 53.1596,
      "raan_deg": 301.1876,
      "arg_perigee_deg": 87.8101,
      "mean_anomaly_deg": 223.3309,
      "mean_motion_rev_day": 15.30217663
    },
    {
      "epoch": "2026-03-30T14:00:03.000384Z",
      "apogee_km": 475.9982556442301,
      "perigee_km": 474.4402136378467,
      "latitude_deg": -9.33481021140273,
      "longitude_deg": -105.3819642725184,
      "height_km": 477.9122077881867,
      "semi_major_axis_km": 6853.356234641038,
      "eccentricity": 0.00011367,
      "inclination_deg": 53.1598,
      "raan_deg": 299.6383,
      "arg_perigee_deg": 86.7884,
      "mean_anomaly_deg": 261.6997,
      "mean_motion_rev_day": 15.30198605
    }
  ]
}